[{"OBJECT_NAME":"PROTOMETHEE","OBJECT_ID":"2023-174BT","EPOCH":"2026-03-09T23:28:08.029344","MEAN_MOTION":15.30202663,"ECCENTRICITY":0.00088339,"INCLINATION":97.3826,"RA_OF_ASC_NODE":147.9552,"ARG_OF_PERICENTER":148.5993,"MEAN_ANOMALY":211.5776,"EPHEMERIS_TYPE":0,"CLASSIFICATION_TYPE":"U","NORAD_CAT_ID":58321,"ELEMENT_SET_NO":999,"REV_AT_EPOCH":12979,"BSTAR":0.00015715731,"MEAN_MOTION_DOT":4.52e-5,"MEAN_MOTION_DDOT":0},{"OBJECT_NAME":"STARLINK-35580","OBJECT_ID":"2025-240K","EPOCH":"2026-03-09T06:07:17.060448","MEAN_MOTION":15.3019797,"ECCENTRICITY":0.00012036,"INCLINATION":53.1604,"RA_OF_ASC_NODE":64.7055,"ARG_OF_PERICENTER":80.4775,"MEAN_ANOMALY":279.6362,"EPHEMERIS_TYPE":0,"CLASSIFICATION_TYPE":"U","NORAD_CAT_ID":66155,"ELEMENT_SET_NO":999,"REV_AT_EPOCH":2192,"BSTAR":0.00072656172,"MEAN_MOTION_DOT":0.0002122,"MEAN_MOTION_DDOT":0}]
